YAOGAN-35 03B           
1 53318U 22088C   26068.54399603  .00010651  00000+0  44045-3 0  9993
2 53318  34.9880 116.4068 0013847 202.6301 157.3803 15.23107662201134
STARLINK-31393          
1 59252U 24049X   26068.22815066 -.00001200  00000+0 -34105-4 0  9995
2 59252  43.0004 131.5827 0000617 279.7597  80.3185 15.27571272112506
